{"type": "FeatureCollection", "features": [ {"type": "Feature", "properties": {"norad_id": 67153, "name": "KUIPER-00248", "group": "last-30-days", "lat": -46.16433466871625, "lon": 0.1852693431267884, "alt_km": 471.3014620055583, "timestamp": "2025-12-27T06:41:29.623443+00:00", "meta": {"OBJECT_NAME": "KUIPER-00248", "OBJECT_ID": "2025-301W", "EPOCH": "2025-12-26T18:28:43.268736", "MEAN_MOTION": 15.34705298, "ECCENTRICITY": 0.00088064, "INCLINATION": 51.8678, "RA_OF_ASC_NODE": 57.538, "ARG_OF_PERICENTER": 143.5222, "MEAN_ANOMALY": 216.6365, "EPHEMERIS_TYPE": 0, "CLASSIFICATION_TYPE": "U", "NORAD_CAT_ID": 67153, "ELEMENT_SET_NO": 999, "REV_AT_EPOCH": 269, "BSTAR": 0.00087641785, "MEAN_MOTION_DOT": 0.00029699, "MEAN_MOTION_DDOT": 0}, "tle": {"line1": "1 67153U 25301W   25360.76994524  .00029699  00000+0  87642-3 0  9999", "line2": "2 67153  51.8678  57.5380 0008806 143.5222 216.6365 15.34705298  2698"}}, "geometry": {"type": "Point", "coordinates": [0.1852693431267884, -46.16433466871625]}}, {"type": "Feature", "properties": {"norad_id": 67154, "name": "KUIPER-00249", "group": "last-30-days", "lat": -42.158995364860985, "lon": 9.72670166244278, "alt_km": 470.8339609785562, "timestamp": "2025-12-27T06:41:29.623454+00:00", "meta": {"OBJECT_NAME": "KUIPER-00249", "OBJECT_ID": "2025-301X", "EPOCH": "2025-12-26T21:34:13.904256", "MEAN_MOTION": 15.34843206, "ECCENTRICITY": 0.00081683, "INCLINATION": 51.8659, "RA_OF_ASC_NODE": 56.9016, "ARG_OF_PERICENTER": 141.385, "MEAN_ANOMALY": 218.7721, "EPHEMERIS_TYPE": 0, "CLASSIFICATION_TYPE": "U", "NORAD_CAT_ID": 67154, "ELEMENT_SET_NO": 999, "REV_AT_EPOCH": 254, "BSTAR": 0.0011050331, "MEAN_MOTION_DOT": 0.00037747, "MEAN_MOTION_DDOT": 0}, "tle": {"line1": "1 67154U 25301X   25360.89877204  .00037747  00000+0  11050-2 0  9991", "line2": "2 67154  51.8659  56.9016 0008168 141.3850 218.7721 15.34843206  2546"}}, "geometry": {"type": "Point", "coordinates": [9.72670166244278, -42.158995364860985]}}, {"type": "Feature", "properties": {"norad_id": 67155, "name": "KUIPER-00250", "group": "last-30-days", "lat": -29.923343086042593, "lon": 28.15235436590008, "alt_km": 467.52754580493274, "timestamp": "2025-12-27T06:41:29.623466+00:00", "meta": {"OBJECT_NAME": "KUIPER-00250", "OBJECT_ID": "2025-301Y", "EPOCH": "2025-12-26T21:29:24.025344", "MEAN_MOTION": 15.35389328, "ECCENTRICITY": 0.00061466, "INCLINATION": 51.8721, "RA_OF_ASC_NODE": 56.8784, "ARG_OF_PERICENTER": 131.2688, "MEAN_ANOMALY": 228.8828, "EPHEMERIS_TYPE": 0, "CLASSIFICATION_TYPE": "U", "NORAD_CAT_ID": 67155, "ELEMENT_SET_NO": 999, "REV_AT_EPOCH": 257, "BSTAR": 0.0010907905, "MEAN_MOTION_DOT": 0.00037899, "MEAN_MOTION_DDOT": 0}, "tle": {"line1": "1 67155U 25301Y   25360.89541696  .00037899  00000+0  10908-2 0  9994", "line2": "2 67155  51.8721  56.8784 0006146 131.2688 228.8828 15.35389328  2573"}}, "geometry": {"type": "Point", "coordinates": [28.15235436590008, -29.923343086042593]}}, {"type": "Feature", "properties": {"norad_id": 67156, "name": "KUIPER-00251", "group": "last-30-days", "lat": -44.45958185780951, "lon": 4.642082278654256, "alt_km": 471.3531408379795, "timestamp": "2025-12-27T06:41:29.623476+00:00", "meta": {"OBJECT_NAME": "KUIPER-00251", "OBJECT_ID": "2025-301Z", "EPOCH": "2025-12-26T21:35:21.573600", "MEAN_MOTION": 15.34808275, "ECCENTRICITY": 0.00088289, "INCLINATION": 51.8666, "RA_OF_ASC_NODE": 56.906, "ARG_OF_PERICENTER": 139.76, "MEAN_ANOMALY": 220.4041, "EPHEMERIS_TYPE": 0, "CLASSIFICATION_TYPE": "U", "NORAD_CAT_ID": 67156, "ELEMENT_SET_NO": 999, "REV_AT_EPOCH": 273, "BSTAR": 0.00090958443, "MEAN_MOTION_DOT": 0.00030945, "MEAN_MOTION_DDOT": 0}, "tle": {"line1": "1 67156U 25301Z   25360.89955525  .00030945  00000+0  90958-3 0  9994", "line2": "2 67156  51.8666  56.9060 0008828 139.7600 220.4041 15.34808275  2735"}}, "geometry": {"type": "Point", "coordinates": [4.642082278654256, -44.45958185780951]}}, {"type": "Feature", "properties": {"norad_id": 67157, "name": "KUIPER-00252", "group": "last-30-days", "lat": -50.76199121282116, "lon": -19.034120184067717, "alt_km": 471.72740830377097, "timestamp": "2025-12-27T06:41:29.623486+00:00", "meta": {"OBJECT_NAME": "KUIPER-00252", "OBJECT_ID": "2025-301AA", "EPOCH": "2025-12-26T18:32:03.943968", "MEAN_MOTION": 15.34306319, "ECCENTRICITY": 0.00099495, "INCLINATION": 51.8656, "RA_OF_ASC_NODE": 57.5526, "ARG_OF_PERICENTER": 150.1041, "MEAN_ANOMALY": 210.0515, "EPHEMERIS_TYPE": 0, "CLASSIFICATION_TYPE": "U", "NORAD_CAT_ID": 67157, "ELEMENT_SET_NO": 999, "REV_AT_EPOCH": 252, "BSTAR": 0.00068968345, "MEAN_MOTION_DOT": 0.00022979, "MEAN_MOTION_DDOT": 0}, "tle": {"line1": "1 67157U 25301AA  25360.77226787  .00022979  00000+0  68968-3 0  9997", "line2": "2 67157  51.8656  57.5526 0009949 150.1041 210.0515 15.34306319  2520"}}, "geometry": {"type": "Point", "coordinates": [-19.034120184067717, -50.76199121282116]}}, {"type": "Feature", "properties": {"norad_id": 67158, "name": "KUIPER-00261", "group": "last-30-days", "lat": -25.63705722205696, "lon": 32.8712760519664, "alt_km": 466.619726203372, "timestamp": "2025-12-27T06:41:29.623496+00:00", "meta": {"OBJECT_NAME": "KUIPER-00261", "OBJECT_ID": "2025-301AB", "EPOCH": "2025-12-26T21:27:51.708672", "MEAN_MOTION": 15.35458459, "ECCENTRICITY": 0.00057421, "INCLINATION": 51.8697, "RA_OF_ASC_NODE": 56.8725, "ARG_OF_PERICENTER": 128.3263, "MEAN_ANOMALY": 231.8239, "EPHEMERIS_TYPE": 0, "CLASSIFICATION_TYPE": "U", "NORAD_CAT_ID": 67158, "ELEMENT_SET_NO": 999, "REV_AT_EPOCH": 254, "BSTAR": 0.0010782392, "MEAN_MOTION_DOT": 0.00037538, "MEAN_MOTION_DDOT": 0}, "tle": {"line1": "1 67158U 25301AB  25360.89434848  .00037538  00000+0  10782-2 0  9997", "line2": "2 67158  51.8697  56.8725 0005742 128.3263 231.8239 15.35458459  2549"}}, "geometry": {"type": "Point", "coordinates": [32.8712760519664, -25.63705722205696]}}, {"type": "Feature", "properties": {"norad_id": 67159, "name": "KUIPER-00265", "group": "last-30-days", "lat": 4.058333968954266, "lon": 58.13041310761326, "alt_km": 456.7950716975438, "timestamp": "2025-12-27T06:41:29.623507+00:00", "meta": {"OBJECT_NAME": "KUIPER-00265", "OBJECT_ID": "2025-301AC", "EPOCH": "2025-12-26T21:18:10.807776", "MEAN_MOTION": 15.36449666, "ECCENTRICITY": 0.00018761, "INCLINATION": 51.8745, "RA_OF_ASC_NODE": 56.8258, "ARG_OF_PERICENTER": 96.0961, "MEAN_ANOMALY": 264.0239, "EPHEMERIS_TYPE": 0, "CLASSIFICATION_TYPE": "U", "NORAD_CAT_ID": 67159, "ELEMENT_SET_NO": 999, "REV_AT_EPOCH": 257, "BSTAR": 0.0010713652, "MEAN_MOTION_DOT": 0.000385, "MEAN_MOTION_DDOT": 0}, "tle": {"line1": "1 67159U 25301AC  25360.88762509  .00038500  00000+0  10714-2 0  9990", "line2": "2 67159  51.8745  56.8258 0001876  96.0961 264.0239 15.36449666  2577"}}, "geometry": {"type": "Point", "coordinates": [58.13041310761326, 4.058333968954266]}}, {"type": "Feature", "properties": {"norad_id": 67160, "name": "GALILEO A", "group": "last-30-days", "lat": -51.652309090741454, "lon": 41.542435099153465, "alt_km": 22932.80132740511, "timestamp": "2025-12-27T06:41:29.623518+00:00", "meta": {"OBJECT_NAME": "GALILEO A", "OBJECT_ID": "2025-302A", "EPOCH": "2025-12-18T03:30:19.486368", "MEAN_MOTION": 1.72906186, "ECCENTRICITY": 0.00084238, "INCLINATION": 54.2406, "RA_OF_ASC_NODE": 107.2544, "ARG_OF_PERICENTER": 237.6458, "MEAN_ANOMALY": 122.2317, "EPHEMERIS_TYPE": 0, "CLASSIFICATION_TYPE": "U", "NORAD_CAT_ID": 67160, "ELEMENT_SET_NO": 999, "REV_AT_EPOCH": 2, "BSTAR": 0, "MEAN_MOTION_DOT": -7e-08, "MEAN_MOTION_DDOT": 0}, "tle": {"line1": "1 67160U 25302A   25352.14605887 -.00000007  00000+0  00000+0 0  9994", "line2": "2 67160  54.2406 107.2544 0008423 237.6458 122.2317  1.72906186    28"}}, "geometry": {"type": "Point", "coordinates": [41.542435099153465, -51.652309090741454]}}, {"type": "Feature", "properties": {"norad_id": 67161, "name": "GALILEO B", "group": "last-30-days", "lat": -50.79961573224403, "lon": 44.979686211306145, "alt_km": 22930.05480301829, "timestamp": "2025-12-27T06:41:29.623529+00:00", "meta": {"OBJECT_NAME": "GALILEO B", "OBJECT_ID": "2025-302B", "EPOCH": "2025-12-26T19:37:10.068960", "MEAN_MOTION": 1.72972318, "ECCENTRICITY": 0.00047769, "INCLINATION": 54.2304, "RA_OF_ASC_NODE": 106.9693, "ARG_OF_PERICENTER": 256.4913, "MEAN_ANOMALY": 103.4489, "EPHEMERIS_TYPE": 0, "CLASSIFICATION_TYPE": "U", "NORAD_CAT_ID": 67161, "ELEMENT_SET_NO": 999, "REV_AT_EPOCH": 18, "BSTAR": 0, "MEAN_MOTION_DOT": 1.6e-07, "MEAN_MOTION_DDOT": 0}, "tle": {"line1": "1 67161U 25302B   25360.81747765  .00000016  00000+0  00000+0 0  9999", "line2": "2 67161  54.2304 106.9693 0004776 256.4913 103.4489  1.72972318   187"}}, "geometry": {"type": "Point", "coordinates": [44.979686211306145, -50.79961573224403]}}, {"type": "Feature", "properties": {"norad_id": 67162, "name": "ARIANE 6 R/B", "group": "last-30-days", "lat": -48.414293615391266, "lon": 52.81320272147567, "alt_km": 22924.557803229567, "timestamp": "2025-12-27T06:41:29.623542+00:00", "meta": {"OBJECT_NAME": "ARIANE 6 R/B", "OBJECT_ID": "2025-302C", "EPOCH": "2025-12-19T07:12:31.071168", "MEAN_MOTION": 1.73130298, "ECCENTRICITY": 2.559e-05, "INCLINATION": 54.2437, "RA_OF_ASC_NODE": 107.222, "ARG_OF_PERICENTER": 160.7324, "MEAN_ANOMALY": 199.2296, "EPHEMERIS_TYPE": 0, "CLASSIFICATION_TYPE": "U", "NORAD_CAT_ID": 67162, "ELEMENT_SET_NO": 999, "REV_AT_EPOCH": 8, "BSTAR": 0, "MEAN_MOTION_DOT": -5e-08, "MEAN_MOTION_DDOT": 0}, "tle": {"line1": "1 67162U 25302C   25353.30035962 -.00000005  00000+0  00000+0 0  9994", "line2": "2 67162  54.2437 107.2220 0000255 160.7324 199.2296  1.73130298    88"}}, "geometry": {"type": "Point", "coordinates": [52.81320272147567, -48.414293615391266]}}]}